
# Worst residual: 54.78 km
# MJD 59935.000000 (2022 Dec 22  0:00)
A10TKof = A10SMu1 = A10TQzV
1 79971U 23999ZZV 22356.49919926  .00000000  00000-0  00000-0 0 19320
2 79971 015.5000 300.2956 5192857 014.3824 145.0118 00.84341471    02

# Worst residual: 87.89 km
# MJD 59936.000000 (2022 Dec 23  0:00)
A10TKof = A10SMu1 = A10TQzV
1 79971U 23999ZZV 22357.49919926  .00000000  00000-0  00000-0 0 19321
2 79971 015.4253 300.1604 5252980 015.0099 089.0394 00.84455636    08

# Worst residual: 111.24 km
# MJD 59937.000000 (2022 Dec 24  0:00)
A10TKof = A10SMu1 = A10TQzV
1 79971U 23999ZZV 22358.49919926  .00000000  00000-0  00000-0 0 19322
2 79971 015.3429 300.0305 5301060 015.5966 032.9877 00.84696487    05

# Worst residual: 74.85 km
# MJD 59938.000000 (2022 Dec 25  0:00)
A10TKof = A10SMu1 = A10TQzV
1 79971U 23999ZZV 22359.49919926  .00000000  00000-0  00000-0 0 19323
2 79971 015.2380 299.8981 5349764 016.3098 336.5629 00.84842656    02

# Worst residual: 132.94 km
# MJD 59939.000000 (2022 Dec 26  0:00)
A10TKof = A10SMu1 = A10TQzV
1 79971U 23999ZZV 22360.49919926  .00000000  00000-0  00000-0 0 19325
2 79971 015.1464 299.8197 5404482 016.8720 280.2209 00.84731819    06

# Worst residual: 92.60 km
# MJD 59940.000000 (2022 Dec 27  0:00)
A10TKof = A10SMu1 = A10TQzV
1 79971U 23999ZZV 22361.49919926  .00000000  00000-0  00000-0 0 19326
2 79971 015.0620 299.7476 5437715 017.3457 224.0842 00.84498380    08

# Worst residual: 67.00 km
# MJD 59941.000000 (2022 Dec 28  0:00)
A10TKof = A10SMu1 = A10TQzV
1 79971U 23999ZZV 22362.49919926  .00000000  00000-0  00000-0 0 19327
2 79971 014.9762 299.6381 5474219 018.0191 167.9098 00.84355854    06

# Worst residual: 88.50 km
# MJD 59942.000000 (2022 Dec 29  0:00)
A10TKof = A10SMu1 = A10TQzV
1 79971U 23999ZZV 22363.49919926  .00000000  00000-0  00000-0 0 19328
2 79971 014.8907 299.4750 5526366 018.7358 111.8203 00.84396816    06

# Worst residual: 105.95 km
# MJD 59943.000000 (2022 Dec 30  0:00)
A10TKof = A10SMu1 = A10TQzV
1 79971U 23999ZZV 22364.49919926  .00000000  00000-0  00000-0 0 19329
2 79971 014.7956 299.3006 5575624 019.3339 055.8365 00.84608288    04

# Worst residual: 91.98 km
# MJD 59944.000000 (2022 Dec 31  0:00)
A10TKof = A10SMu1 = A10TQzV
1 79971U 23999ZZV 22365.49919926  .00000000  00000-0  00000-0 0 19320
2 79971 014.6851 299.0914 5616628 020.0708 359.5186 00.84810599    06

# Worst residual: 128.86 km
# MJD 59945.000000 (2023 Jan  1  0:00)
A10TKof = A10SMu1 = A10TQzV
1 79971U 23999ZZV 23001.49919926  .00000000  00000-0  00000-0 0 19328
2 79971 014.5707 298.9496 5666197 020.7402 303.0731 00.84782757    06

# Worst residual: 103.26 km
# MJD 59946.000000 (2023 Jan  2  0:00)
A10TKof = A10SMu1 = A10TQzV
1 79971U 23999ZZV 23002.49919926  .00000000  00000-0  00000-0 0 19329
2 79971 014.4749 298.8363 5705705 021.2358 246.9020 00.84584029    06

# Worst residual: 73.57 km
# MJD 59947.000000 (2023 Jan  3  0:00)
A10TKof = A10SMu1 = A10TQzV
1 79971U 23999ZZV 23003.49919926  .00000000  00000-0  00000-0 0 19320
2 79971 014.3732 298.6737 5733665 021.8980 190.7141 00.84400697    01

# Worst residual: 47.79 km
# MJD 59948.000000 (2023 Jan  4  0:00)
A10TKof = A10SMu1 = A10TQzV
1 79971U 23999ZZV 23004.49919926  .00000000  00000-0  00000-0 0 19321
2 79971 014.2730 298.4723 5774549 022.6651 134.5610 00.84362377    00

# Worst residual: 89.05 km
# MJD 59949.000000 (2023 Jan  5  0:00)
A10TKof = A10SMu1 = A10TQzV
1 79971U 23999ZZV 23005.49919926  .00000000  00000-0  00000-0 0 19322
2 79971 014.1869 298.2456 5823790 023.3271 078.5692 00.84524351    01

# Worst residual: 92.74 km
# MJD 59950.000000 (2023 Jan  6  0:00)
A10TKof = A10SMu1 = A10TQzV
1 79971U 23999ZZV 23006.49919926  .00000000  00000-0  00000-0 0 19323
2 79971 014.0610 297.9669 5861713 024.0720 022.3747 00.84748852    02

# Worst residual: 98.72 km
# MJD 59951.000000 (2023 Jan  7  0:00)
A10TKof = A10SMu1 = A10TQzV
1 79971U 23999ZZV 23007.49919926  .00000000  00000-0  00000-0 0 19324
2 79971 013.9256 297.7381 5904398 024.8392 325.8935 00.84807263    07

# Worst residual: 131.91 km
# MJD 59952.000000 (2023 Jan  8  0:00)
A10TKof = A10SMu1 = A10TQzV
1 79971U 23999ZZV 23008.49919926  .00000000  00000-0  00000-0 0 19325
2 79971 013.8105 297.5534 5946185 025.4563 269.5800 00.84656433    00

# Worst residual: 78.32 km
# MJD 59953.000000 (2023 Jan  9  0:00)
A10TKof = A10SMu1 = A10TQzV
1 79971U 23999ZZV 23009.49919926  .00000000  00000-0  00000-0 0 19326
2 79971 013.6966 297.3413 5968946 026.0980 213.3976 00.84434866    01

# Worst residual: 59.64 km
# MJD 59954.000000 (2023 Jan 10  0:00)
A10TKof = A10SMu1 = A10TQzV
1 79971U 23999ZZV 23010.49919926  .00000000  00000-0  00000-0 0 19328
2 79971 013.5857 297.0803 6000702 026.9127 157.2042 00.84350817    02

# Worst residual: 100.80 km
# MJD 59955.000000 (2023 Jan 11  0:00)
A10TKof = A10SMu1 = A10TQzV
1 79971U 23999ZZV 23011.49919926  .00000000  00000-0  00000-0 0 19329
2 79971 013.4862 296.8105 6046484 027.6768 101.1110 00.84451778    07

# Worst residual: 106.39 km
# MJD 59956.000000 (2023 Jan 12  0:00)
A10TKof = A10SMu1 = A10TQzV
1 79971U 23999ZZV 23012.49919926  .00000000  00000-0  00000-0 0 19320
2 79971 013.3661 296.4218 6082404 028.4950 044.9915 00.84669267    09

# Worst residual: 75.63 km
# MJD 59957.000000 (2023 Jan 13  0:00)
A10TKof = A10SMu1 = A10TQzV
1 79971U 23999ZZV 23013.49919926  .00000000  00000-0  00000-0 0 19321
2 79971 013.2231 296.0546 6115713 029.3877 348.5391 00.84812880    01

# Worst residual: 133.46 km
# MJD 59958.000000 (2023 Jan 14  0:00)
A10TKof = A10SMu1 = A10TQzV
1 79971U 23999ZZV 23014.49919926  .00000000  00000-0  00000-0 0 19322
2 79971 013.0843 295.7635 6155563 030.1493 292.1126 00.84710485    02

# Worst residual: 69.23 km
# MJD 59959.000000 (2023 Jan 15  0:00)
A10TKof = A10SMu1 = A10TQzV
1 79971U 23999ZZV 23015.49919926  .00000000  00000-0  00000-0 0 19323
2 79971 012.9754 295.5151 6177698 030.7747 235.9356 00.84486347    00
